start=new Date('2022-02-19T00:00:00.000Z').valueOf();
sats=[{"PERIAPSIS":"546.157","ELEMENT_SET_NO":"999","MEAN_MOTION_DDOT":"0.0000000000000","LAUNCH_DATE":"2020-09-03","TIME_SYSTEM":"UTC","BSTAR":"0.00005145800000","FILE":"3307132","CLASSIFICATION_TYPE":"U","CENTER_NAME":"EARTH","APOAPSIS":"548.286","OBJECT_NAME":"STARLINK-1550","TLE_LINE1":"1 46365U 20062AS  22049.74825736  .00000485  00000-0  51458-4 0  9997","DECAY_DATE":null,"ARG_OF_PERICENTER":"63.8234","COUNTRY_CODE":"US","ECCENTRICITY":"0.00015370","NORAD_CAT_ID":"46365","EPHEMERIS_TYPE":"0","SITE":"AFETR","RA_OF_ASC_NODE":"135.3295","MEAN_MOTION":"15.06397354","PERIOD":"95.592","MEAN_ELEMENT_THEORY":"SGP4","MEAN_MOTION_DOT":"0.00000485","INCLINATION":"53.0532","OBJECT_TYPE":"PAYLOAD","RCS_SIZE":"LARGE","SEMIMAJOR_AXIS":"6925.357","TLE_LINE2":"2 46365  53.0532 135.3295 0001537  63.8234 296.2913 15.06397354 81873","MEAN_ANOMALY":"296.2913","REV_AT_EPOCH":"8187","OBJECT_ID":"2020-062AS","GP_ID":"196332157","REF_FRAME":"TEME","EPOCH":"2022-02-18T17:57:29.435904"},{"MEAN_ANOMALY":"290.2447","REV_AT_EPOCH":"8187","OBJECT_ID":"2020-062AT","TLE_LINE2":"2 46366  53.0534 135.3833 0001353  69.8688 290.2447 15.06417065 81877","EPOCH":"2022-02-18T17:41:33.335232","REF_FRAME":"TEME","GP_ID":"196332407","PERIOD":"95.591","MEAN_MOTION":"15.06417065","SITE":"AFETR","RA_OF_ASC_NODE":"135.3833","OBJECT_TYPE":"PAYLOAD","INCLINATION":"53.0534","SEMIMAJOR_AXIS":"6925.296","RCS_SIZE":"LARGE","MEAN_ELEMENT_THEORY":"SGP4","MEAN_MOTION_DOT":"0.00006033","BSTAR":"0.00042337000000","FILE":"3307132","CLASSIFICATION_TYPE":"U","CENTER_NAME":"EARTH","DECAY_DATE":null,"ARG_OF_PERICENTER":"69.8688","EPHEMERIS_TYPE":"0","COUNTRY_CODE":"US","ECCENTRICITY":"0.00013530","NORAD_CAT_ID":"46366","APOAPSIS":"548.098","TLE_LINE1":"1 46366U 20062AT  22049.73719138  .00006033  00000-0  42337-3 0  9995","OBJECT_NAME":"STARLINK-1651","ELEMENT_SET_NO":"999","PERIAPSIS":"546.224","TIME_SYSTEM":"UTC","MEAN_MOTION_DDOT":"0.0000000000000","LAUNCH_DATE":"2020-09-03"},{"EPHEMERIS_TYPE":"0","COUNTRY_CODE":"US","ECCENTRICITY":"0.00015590","NORAD_CAT_ID":"46368","DECAY_DATE":null,"ARG_OF_PERICENTER":"61.4717","TLE_LINE1":"1 46368U 20062AV  22049.80308131  .00001582  00000-0  12508-3 0  9993","OBJECT_NAME":"STARLINK-1658","APOAPSIS":"548.304","CENTER_NAME":"EARTH","FILE":"3307132","BSTAR":"0.00012508000000","CLASSIFICATION_TYPE":"U","TIME_SYSTEM":"UTC","LAUNCH_DATE":"2020-09-03","MEAN_MOTION_DDOT":"0.0000000000000","ELEMENT_SET_NO":"999","PERIAPSIS":"546.144","EPOCH":"2022-02-18T19:16:26.225184","REF_FRAME":"TEME","GP_ID":"196333658","OBJECT_ID":"2020-062AV","REV_AT_EPOCH":"8154","MEAN_ANOMALY":"298.6429","TLE_LINE2":"2 46368  53.0532 160.0938 0001559  61.4717 298.6429 15.06396544 81541","SEMIMAJOR_AXIS":"6925.359","RCS_SIZE":"LARGE","OBJECT_TYPE":"PAYLOAD","INCLINATION":"53.0532","MEAN_ELEMENT_THEORY":"SGP4","MEAN_MOTION_DOT":"0.00001582","PERIOD":"95.592","MEAN_MOTION":"15.06396544","RA_OF_ASC_NODE":"160.0938","SITE":"AFETR"},{"MEAN_MOTION_DOT":"0.00000906","MEAN_ELEMENT_THEORY":"SGP4","INCLINATION":"53.0552","OBJECT_TYPE":"PAYLOAD","RCS_SIZE":"LARGE","SEMIMAJOR_AXIS":"6925.381","SITE":"AFETR","RA_OF_ASC_NODE":"160.5652","MEAN_MOTION":"15.06389496","PERIOD":"95.593","REF_FRAME":"TEME","GP_ID":"196333406","EPOCH":"2022-02-18T16:47:49.826400","TLE_LINE2":"2 46370  53.0552 160.5652 0001507  59.2622 300.8516 15.06389496 81526","REV_AT_EPOCH":"8152","MEAN_ANOMALY":"300.8516","OBJECT_ID":"2020-062AX","MEAN_MOTION_DDOT":"0.0000000000000","LAUNCH_DATE":"2020-09-03","TIME_SYSTEM":"UTC","PERIAPSIS":"546.202","ELEMENT_SET_NO":"999","APOAPSIS":"548.289","OBJECT_NAME":"STARLINK-1670","TLE_LINE1":"1 46370U 20062AX  22049.69988225  .00000906  00000-0  79700-4 0  9998","DECAY_DATE":null,"ARG_OF_PERICENTER":"59.2622","NORAD_CAT_ID":"46370","COUNTRY_CODE":"US","ECCENTRICITY":"0.00015070","EPHEMERIS_TYPE":"0","CLASSIFICATION_TYPE":"U","FILE":"3307132","BSTAR":"0.00007970000000","CENTER_NAME":"EARTH"},{"MEAN_MOTION_DDOT":"0.0000000000000","LAUNCH_DATE":"2020-09-03","TIME_SYSTEM":"UTC","PERIAPSIS":"546.283","ELEMENT_SET_NO":"999","APOAPSIS":"548.197","TLE_LINE1":"1 46371U 20062AY  22049.82520145  .00000014  00000-0  19809-4 0  9991","OBJECT_NAME":"STARLINK-1688","DECAY_DATE":null,"ARG_OF_PERICENTER":"60.1318","EPHEMERIS_TYPE":"0","COUNTRY_CODE":"US","NORAD_CAT_ID":"46371","ECCENTRICITY":"0.00013820","FILE":"3307132","CLASSIFICATION_TYPE":"U","BSTAR":"0.00001980900000","CENTER_NAME":"EARTH","MEAN_MOTION_DOT":"0.00000014","MEAN_ELEMENT_THEORY":"SGP4","OBJECT_TYPE":"PAYLOAD","INCLINATION":"53.0532","SEMIMAJOR_AXIS":"6925.375","RCS_SIZE":"LARGE","SITE":"AFETR","RA_OF_ASC_NODE":"159.9837","PERIOD":"95.593","MEAN_MOTION":"15.06391373","REF_FRAME":"TEME","GP_ID":"196332657","EPOCH":"2022-02-18T19:48:17.405280","TLE_LINE2":"2 46371  53.0532 159.9837 0001382  60.1318 299.9808 15.06391373 81547","REV_AT_EPOCH":"8154","MEAN_ANOMALY":"299.9808","OBJECT_ID":"2020-062AY"},{"GP_ID":"196332907","REF_FRAME":"TEME","EPOCH":"2022-02-18T18:26:00.667392","TLE_LINE2":"2 46372  53.0534 180.2372 0001563  70.7984 289.3174 15.06401341 81252","OBJECT_ID":"2020-062AZ","REV_AT_EPOCH":"8125","MEAN_ANOMALY":"289.3174","MEAN_MOTION_DOT":"0.00001589","MEAN_ELEMENT_THEORY":"SGP4","SEMIMAJOR_AXIS":"6925.344","RCS_SIZE":"LARGE","OBJECT_TYPE":"PAYLOAD","INCLINATION":"53.0534","RA_OF_ASC_NODE":"180.2372","SITE":"AFETR","PERIOD":"95.592","MEAN_MOTION":"15.06401341","TLE_LINE1":"1 46372U 20062AZ  22049.76806328  .00001589  00000-0  12552-3 0  9990","OBJECT_NAME":"STARLINK-1689","APOAPSIS":"548.292","EPHEMERIS_TYPE":"0","COUNTRY_CODE":"US","ECCENTRICITY":"0.00015630","NORAD_CAT_ID":"46372","DECAY_DATE":null,"ARG_OF_PERICENTER":"70.7984","CENTER_NAME":"EARTH","BSTAR":"0.00012552000000","FILE":"3307132","CLASSIFICATION_TYPE":"U","LAUNCH_DATE":"2020-09-03","MEAN_MOTION_DDOT":"0.0000000000000","TIME_SYSTEM":"UTC","PERIAPSIS":"546.127","ELEMENT_SET_NO":"999"},{"REF_FRAME":"TEME","GP_ID":"196333159","EPOCH":"2022-02-18T15:34:49.657440","TLE_LINE2":"2 46374  53.0537 110.7864 0001101 102.1635 257.9477 15.06403356 82214","OBJECT_ID":"2020-062BB","REV_AT_EPOCH":"8221","MEAN_ANOMALY":"257.9477","MEAN_ELEMENT_THEORY":"SGP4","MEAN_MOTION_DOT":"-0.00002334","SEMIMAJOR_AXIS":"6925.338","RCS_SIZE":"LARGE","OBJECT_TYPE":"PAYLOAD","INCLINATION":"53.0537","RA_OF_ASC_NODE":"110.7864","SITE":"AFETR","PERIOD":"95.592","MEAN_MOTION":"15.06403356","TLE_LINE1":"1 46374U 20062BB  22049.64918585 -.00002334  00000-0 -13785-3 0  9998","OBJECT_NAME":"STARLINK-1711","APOAPSIS":"547.966","EPHEMERIS_TYPE":"0","NORAD_CAT_ID":"46374","COUNTRY_CODE":"US","ECCENTRICITY":"0.00011010","DECAY_DATE":null,"ARG_OF_PERICENTER":"102.1635","CENTER_NAME":"EARTH","BSTAR":"-0.00013785000000","FILE":"3307132","CLASSIFICATION_TYPE":"U","LAUNCH_DATE":"2020-09-03","MEAN_MOTION_DDOT":"0.0000000000000","TIME_SYSTEM":"UTC","PERIAPSIS":"546.441","ELEMENT_SET_NO":"999"},{"EPOCH":"2022-02-18T17:30:56.538720","GP_ID":"196333906","REF_FRAME":"TEME","OBJECT_ID":"2020-062BC","MEAN_ANOMALY":"309.1499","REV_AT_EPOCH":"8187","TLE_LINE2":"2 46375  53.0530 135.4100 0001712  50.9642 309.1499 15.06416902 81877","RCS_SIZE":"LARGE","SEMIMAJOR_AXIS":"6925.297","INCLINATION":"53.0530","OBJECT_TYPE":"PAYLOAD","MEAN_ELEMENT_THEORY":"SGP4","MEAN_MOTION_DOT":"0.00008556","MEAN_MOTION":"15.06416902","PERIOD":"95.591","RA_OF_ASC_NODE":"135.4100","SITE":"AFETR","ECCENTRICITY":"0.00017120","COUNTRY_CODE":"US","NORAD_CAT_ID":"46375","EPHEMERIS_TYPE":"0","ARG_OF_PERICENTER":"50.9642","DECAY_DATE":null,"OBJECT_NAME":"STARLINK-1724","TLE_LINE1":"1 46375U 20062BC  22049.72982105  .00008556  00000-0  59231-3 0  9993","APOAPSIS":"548.347","CENTER_NAME":"EARTH","CLASSIFICATION_TYPE":"U","FILE":"3307132","BSTAR":"0.00059231000000","TIME_SYSTEM":"UTC","LAUNCH_DATE":"2020-09-03","MEAN_MOTION_DDOT":"0.0000000000000","ELEMENT_SET_NO":"999","PERIAPSIS":"545.976"},{"LAUNCH_DATE":"2020-09-03","MEAN_MOTION_DDOT":"0.0000000000000","TIME_SYSTEM":"UTC","PERIAPSIS":"546.173","ELEMENT_SET_NO":"999","OBJECT_NAME":"STARLINK-1742","TLE_LINE1":"1 46376U 20062BD  22049.67821747  .00005815  00000-0  40887-3 0  9994","APOAPSIS":"548.207","COUNTRY_CODE":"US","ECCENTRICITY":"0.00014680","NORAD_CAT_ID":"46376","EPHEMERIS_TYPE":"0","DECAY_DATE":null,"ARG_OF_PERICENTER":"66.6380","CENTER_NAME":"EARTH","FILE":"3307132","CLASSIFICATION_TYPE":"U","BSTAR":"0.00040887000000","MEAN_ELEMENT_THEORY":"SGP4","MEAN_MOTION_DOT":"0.00005815","RCS_SIZE":"LARGE","SEMIMAJOR_AXIS":"6925.325","INCLINATION":"53.0548","OBJECT_TYPE":"PAYLOAD","RA_OF_ASC_NODE":"135.6445","SITE":"AFETR","MEAN_MOTION":"15.06407646","PERIOD":"95.592","GP_ID":"196332158","REF_FRAME":"TEME","EPOCH":"2022-02-18T16:16:37.989408","TLE_LINE2":"2 46376  53.0548 135.6445 0001468  66.6380 293.4764 15.06407646 81866","OBJECT_ID":"2020-062BD","MEAN_ANOMALY":"293.4764","REV_AT_EPOCH":"8186"},{"APOAPSIS":"548.295","TLE_LINE1":"1 46380U 20062BH  22049.71093003  .00002128  00000-0  16172-3 0  9994","OBJECT_NAME":"STARLINK-1758","ARG_OF_PERICENTER":"68.2335","DECAY_DATE":null,"EPHEMERIS_TYPE":"0","COUNTRY_CODE":"US","ECCENTRICITY":"0.00015550","NORAD_CAT_ID":"46380","BSTAR":"0.00016172000000","FILE":"3307132","CLASSIFICATION_TYPE":"U","CENTER_NAME":"EARTH","MEAN_MOTION_DDOT":"0.0000000000000","LAUNCH_DATE":"2020-09-03","TIME_SYSTEM":"UTC","PERIAPSIS":"546.141","ELEMENT_SET_NO":"999","REF_FRAME":"TEME","GP_ID":"196332408","EPOCH":"2022-02-18T17:03:44.354592","TLE_LINE2":"2 46380  53.0546 160.4979 0001555  68.2335 291.8820 15.06398591 81528","MEAN_ANOMALY":"291.8820","REV_AT_EPOCH":"8152","OBJECT_ID":"2020-062BH","MEAN_ELEMENT_THEORY":"SGP4","MEAN_MOTION_DOT":"0.00002128","OBJECT_TYPE":"PAYLOAD","INCLINATION":"53.0546","SEMIMAJOR_AXIS":"6925.353","RCS_SIZE":"LARGE","SITE":"AFETR","RA_OF_ASC_NODE":"160.4979","PERIOD":"95.592","MEAN_MOTION":"15.06398591"}];
